NORAD_CAT_ID,OBJECT_NAME,OBJECT_TYPE,EPOCH,MEAN_MOTION,ECCENTRICITY,INCLINATION,RA_OF_ASC_NODE,ARG_OF_PERICENTER,MEAN_ANOMALY,BSTAR,MEAN_MOTION_DOT,MEAN_MOTION_DDOT,TLE_LINE0,TLE_LINE1,TLE_LINE2,SEMIMAJOR_AXIS,PERIOD,APOGEE,PERIGEE,DECAYED
49137.0,STARLINK-3055,PAYLOAD,2024-08-01 11:05:55,14.9832849,0.0003147,70.0,310.0199,268.7688,91.3111,0.00013906,1.567e-05,0.0,0 STARLINK-3055,1 49137U 21082H   24214.46244889  .00001567  00000-0  13906-3 0  9996,2 49137  70.0000 310.0199 0003147 268.7688  91.3111 14.98328490158813,6950.198,96.107,574.25,569.875,0.0
49137.0,STARLINK-3055,PAYLOAD,2024-08-01 15:54:19,14.98338185,0.0003116,69.9998,309.5143,267.3434,92.7368,0.00012088,1.35e-05,0.0,0 STARLINK-3055,1 49137U 21082H   24214.66272273  .00001350  00000-0  12088-3 0  9996,2 49137  69.9998 309.5143 0003116 267.3434  92.7368 14.98338185158842,6950.168,96.106,574.198,569.867,0.0
49137.0,STARLINK-3055,PAYLOAD,2024-08-01 23:55:00,14.98330376,0.0002969,70.0006,308.6747,267.3974,92.6846,-4.35e-05,-6.12e-06,0.0,0 STARLINK-3055,1 49137U 21082H   24214.99653061 -.00000612  00000-0 -43500-4 0  9996,2 49137  70.0006 308.6747 0002969 267.3974  92.6846 14.98330376158898,6950.192,96.107,574.12,569.993,0.0
49137.0,STARLINK-3055,PAYLOAD,2024-08-02 14:20:12,14.9832833,0.0002898,70.0005,307.1583,258.8643,101.2191,4.0093e-05,3.85e-06,0.0,0 STARLINK-3055,1 49137U 21082H   24215.59737207  .00000385  00000-0  40093-4 0  9997,2 49137  70.0005 307.1583 0002898 258.8643 101.2191 14.98328330158985,6950.198,96.107,574.077,570.049,0.0
49137.0,STARLINK-3055,PAYLOAD,2024-08-02 15:56:20,14.98329231,0.0002654,70.0008,306.9898,247.5933,112.4945,5.4909e-05,5.62e-06,0.0,0 STARLINK-3055,1 49137U 21082H   24215.66413071  .00000562  00000-0  54909-4 0  9993,2 49137  70.0008 306.9898 0002654 247.5933 112.4945 14.98329231158994,6950.195,96.107,573.905,570.216,0.0
49137.0,STARLINK-3055,PAYLOAD,2024-08-02 23:57:01,14.98329644,0.0002963,70.0007,306.1481,265.8885,94.1935,5.4397e-05,5.56e-06,0.0,0 STARLINK-3055,1 49137U 21082H   24215.99793109  .00000556  00000-0  54397-4 0  9996,2 49137  70.0007 306.1481 0002963 265.8885  94.1935 14.98329644159045,6950.194,96.107,574.118,570.0,0.0
49137.0,STARLINK-3055,PAYLOAD,2024-08-03 12:46:05,14.98336704,0.0002884,70.0009,304.8044,262.4409,97.6423,0.00012653,1.417e-05,0.0,0 STARLINK-3055,1 49137U 21082H   24216.53200528  .00001417  00000-0  12653-3 0  9990,2 49137  70.0009 304.8044 0002884 262.4409  97.6423 14.98336704159128,6950.172,96.107,574.042,570.033,0.0
49137.0,STARLINK-3055,PAYLOAD,2024-08-03 14:22:13,14.98339589,0.0003046,70.0002,304.6344,265.3798,94.7013,0.00014655,1.656e-05,0.0,0 STARLINK-3055,1 49137U 21082H   24216.59876281  .00001656  00000-0  14655-3 0  9990,2 49137  70.0002 304.6344 0003046 265.3798  94.7013 14.98339589159134,6950.163,96.106,574.145,569.911,0.0
49137.0,STARLINK-3055,PAYLOAD,2024-08-03 15:58:21,14.98341175,0.0003026,70.0003,304.4662,264.8807,95.2007,0.00017046,1.942e-05,0.0,0 STARLINK-3055,1 49137U 21082H   24216.66552131  .00001942  00000-0  17046-3 0  9998,2 49137  70.0003 304.4662 0003026 264.8807  95.2007 14.98341175159143,6950.158,96.106,574.126,569.92,0.0
49137.0,STARLINK-3055,PAYLOAD,2024-08-04 04:47:26,14.98328217,0.0002884,70.0008,303.1192,268.0565,92.0264,0.0001262,1.413e-05,0.0,0 STARLINK-3055,1 49137U 21082H   24217.19961079  .00001413  00000-0  12620-3 0  9998,2 49137  70.0008 303.1192 0002884 268.0565  92.0264 14.98328217159221,6950.198,96.107,574.068,570.059,0.0
49137.0,STARLINK-3055,PAYLOAD,2024-08-04 12:48:06,14.98334188,0.0002629,70.0016,302.279,263.2866,96.7994,0.00021081,2.424e-05,0.0,0 STARLINK-3055,1 49137U 21082H   24217.53340492  .00002424  00000-0  21081-3 0  9990,2 49137  70.0016 302.2790 0002629 263.2866  96.7994 14.98334188159272,6950.18,96.107,573.872,570.218,0.0
49137.0,STARLINK-3055,PAYLOAD,2024-08-04 14:24:14,14.98337006,0.0002745,70.0013,302.1107,262.7515,97.3332,0.00015175,1.718e-05,0.0,0 STARLINK-3055,1 49137U 21082H   24217.60016399  .00001718  00000-0  15175-3 0  9996,2 49137  70.0013 302.1107 0002745 262.7515  97.3332 14.98337006159280,6950.171,96.107,573.944,570.128,0.0
49137.0,STARLINK-3055,PAYLOAD,2024-08-04 16:00:22,14.98334818,0.0002676,70.0015,301.9425,263.4982,96.5873,0.00021952,2.528e-05,0.0,0 STARLINK-3055,1 49137U 21082H   24217.66692428  .00002528  00000-0  21952-3 0  9995,2 49137  70.0015 301.9425 0002676 263.4982  96.5873 14.98334818159291,6950.178,96.107,573.903,570.183,0.0
49137.0,STARLINK-3055,PAYLOAD,2024-08-05 12:50:06,14.98339103,0.0002671,70.0014,299.7552,258.3563,101.7296,0.00011489,1.278e-05,0.0,0 STARLINK-3055,1 49137U 21082H   24218.53479998  .00001278  00000-0  11489-3 0  9992,2 49137  70.0014 299.7552 0002671 258.3563 101.7296 14.98339103159423,6950.165,96.106,573.886,570.173,0.0
49137.0,STARLINK-3055,PAYLOAD,2024-08-05 22:26:55,14.98329804,0.0003017,70.0015,298.7447,264.3455,95.736,-1.3803e-05,-2.58e-06,0.0,0 STARLINK-3055,1 49137U 21082H   24218.93536477 -.00000258  00000-0 -13803-4 0  9994,2 49137  70.0015 298.7447 0003017 264.3455  95.7360 14.98329804159485,6950.193,96.107,574.155,569.962,0.0
49137.0,STARLINK-3055,PAYLOAD,2024-08-06 12:52:09,14.98317103,0.0002729,70.0011,297.2296,260.5093,99.5757,-0.00010071,-1.294e-05,0.0,0 STARLINK-3055,1 49137U 21082H   24219.53621836 -.00001294  00000-0 -10071-3 0  9999,2 49137  70.0011 297.2296 0002729 260.5093  99.5757 14.98317103159573,6950.233,96.108,573.994,570.201,0.0
49137.0,STARLINK-3055,PAYLOAD,2024-08-06 14:28:17,14.98315148,0.000264,70.0016,297.0625,255.4083,104.6784,-9.9298e-05,-1.277e-05,0.0,0 STARLINK-3055,1 49137U 21082H   24219.60298000 -.00001277  00000-0 -99298-4 0  9990,2 49137  70.0016 297.0625 0002640 255.4083 104.6784 14.98315148159582,6950.239,96.108,573.939,570.269,0.0
49137.0,STARLINK-3055,PAYLOAD,2024-08-07 12:54:08,14.9834227,0.0002857,70.0006,294.7056,260.1915,99.8922,0.00014574,1.647e-05,0.0,0 STARLINK-3055,1 49137U 21082H   24220.53759851  .00001647  00000-0  14574-3 0  9992,2 49137  70.0006 294.7056 0002857 260.1915  99.8922 14.98342270159721,6950.155,96.106,574.006,570.034,0.0
49137.0,STARLINK-3055,PAYLOAD,2024-08-08 12:56:10,14.98326264,0.0002589,70.0021,292.1823,239.0516,121.0389,0.00028581,3.319e-05,0.0,0 STARLINK-3055,1 49137U 21082H   24221.53900776  .00003319  00000-0  28581-3 0  9998,2 49137  70.0021 292.1823 0002589 239.0516 121.0389 14.98326264159872,6950.204,96.107,573.869,570.27,0.0
49137.0,STARLINK-3055,PAYLOAD,2024-08-08 14:32:18,14.98327299,0.0002586,70.0019,292.0137,241.5427,118.5472,0.00028432,3.301e-05,0.0,0 STARLINK-3055,1 49137U 21082H   24221.60576717  .00003301  00000-0  28432-3 0  9996,2 49137  70.0019 292.0137 0002586 241.5427 118.5472 14.98327299159886,6950.201,96.107,573.864,570.269,0.0
49137.0,STARLINK-3055,PAYLOAD,2024-08-09 12:58:10,14.98339139,0.0002908,70.0001,289.6535,262.3299,97.753,8.399e-05,9.1e-06,0.0,0 STARLINK-3055,1 49137U 21082H   24222.54040092  .00000910  00000-0  83990-4 0  9996,2 49137  70.0001 289.6535 0002908 262.3299  97.7530 14.98339139160024,6950.165,96.106,574.051,570.009,0.0
49137.0,STARLINK-3055,PAYLOAD,2024-08-09 14:34:18,14.98340968,0.0003066,70.0,289.4848,267.1257,92.9551,0.00013093,1.47e-05,0.0,0 STARLINK-3055,1 49137U 21082H   24222.60715874  .00001470  00000-0  13093-3 0  9998,2 49137  70.0000 289.4848 0003066 267.1257  92.9551 14.98340968160034,6950.159,96.106,574.155,569.893,0.0
49137.0,STARLINK-3055,PAYLOAD,2024-08-10 04:59:31,14.9832874,0.0002262,70.0022,287.971,260.5097,99.5807,0.00013293,1.493e-05,0.0,0 STARLINK-3055,1 49137U 21082H   24223.20800504  .00001493  00000-0  13293-3 0  9997,2 49137  70.0022 287.9710 0002262 260.5097  99.5807 14.98328740160126,6950.197,96.107,573.634,570.49,0.0
49137.0,STARLINK-3055,PAYLOAD,2024-08-10 14:36:19,14.98336912,0.0002692,70.0006,286.9614,267.5897,92.4954,0.0001195,1.333e-05,0.0,0 STARLINK-3055,1 49137U 21082H   24223.60856005  .00001333  00000-0  11950-3 0  9999,2 49137  70.0006 286.9614 0002692 267.5897  92.4954 14.98336912160183,6950.172,96.107,573.908,570.166,0.0
49137.0,STARLINK-3055,PAYLOAD,2024-08-11 09:49:56,14.98328466,0.0002851,70.0,284.9409,264.6678,95.4156,7.5852e-05,8.12e-06,0.0,0 STARLINK-3055,1 49137U 21082H   24224.40968546  .00000812  00000-0  75852-4 0  9995,2 49137  70.0000 284.9409 0002851 264.6678  95.4156 14.98328466160305,6950.198,96.107,574.044,570.081,0.0
49137.0,STARLINK-3055,PAYLOAD,2024-08-11 21:02:52,14.98343223,0.0003362,69.9984,283.7602,274.4692,85.6083,6.7805e-05,7.16e-06,0.0,0 STARLINK-3055,1 49137U 21082H   24224.87699382  .00000716  00000-0  67805-4 0  9997,2 49137  69.9984 283.7602 0003362 274.4692  85.6083 14.98343223160373,6950.152,96.106,574.354,569.68,0.0
49137.0,STARLINK-3055,PAYLOAD,2024-08-12 14:40:20,14.98352636,0.000274,70.001,281.9094,270.2162,89.8683,0.0004338,5.09e-05,0.0,0 STARLINK-3055,1 49137U 21082H   24225.61134750  .00005090  00000-0  43380-3 0  9994,2 49137  70.0010 281.9094 0002740 270.2162  89.8683 14.98352636160488,6950.123,96.106,573.892,570.084,0.0
49137.0,STARLINK-3055,PAYLOAD,2024-08-13 05:05:34,14.9831843,0.0003579,70.001,280.3959,279.8252,80.2503,-0.00015307,-1.918e-05,0.0,0 STARLINK-3055,1 49137U 21082H   24226.21220348 -.00001918  00000-0 -15307-3 0  9995,2 49137  70.0010 280.3959 0003579 279.8252  80.2503 14.98318430160577,6950.229,96.108,574.581,569.606,0.0
49137.0,STARLINK-3055,PAYLOAD,2024-08-13 09:53:58,14.98317611,0.0002884,69.9997,279.889,261.3745,98.7087,-0.00020307,-2.514e-05,0.0,0 STARLINK-3055,1 49137U 21082H   24226.41248424 -.00002514  00000-0 -20307-3 0  9991,2 49137  69.9997 279.8890 0002884 261.3745  98.7087 14.98317611160601,6950.231,96.108,574.101,570.092,0.0
49137.0,STARLINK-3055,PAYLOAD,2024-08-14 05:07:35,14.98313406,0.0003029,70.0012,277.8723,270.7804,89.3008,-0.00026173,-3.213e-05,0.0,0 STARLINK-3055,1 49137U 21082H   24227.21361082 -.00003213  00000-0 -26173-3 0  9990,2 49137  70.0012 277.8723 0003029 270.7804  89.3008 14.98313406160727,6950.244,96.108,574.214,570.004,0.0
